{"type": "FeatureCollection", "features": [ {"type": "Feature", "properties": {"norad_id": 33905, "name": "COSMOS 2251 DEB", "group": "cosmos-2251-debris", "lat": 37.20556440622094, "lon": -19.795088064243966, "alt_km": 813.2393964149378, "timestamp": "2025-12-06T20:37:56.468314+00:00", "meta": {"OBJECT_NAME": "COSMOS 2251 DEB", "OBJECT_ID": "1993-036DJ", "EPOCH": "2025-12-06T09:28:01.203168", "MEAN_MOTION": 14.35349319, "ECCENTRICITY": 0.00592728, "INCLINATION": 73.887, "RA_OF_ASC_NODE": 328.3883, "ARG_OF_PERICENTER": 219.1218, "MEAN_ANOMALY": 297.0067, "EPHEMERIS_TYPE": 0, "CLASSIFICATION_TYPE": "U", "NORAD_CAT_ID": 33905, "ELEMENT_SET_NO": 999, "REV_AT_EPOCH": 87596, "BSTAR": 0.0013596896, "MEAN_MOTION_DOT": 3.953e-05, "MEAN_MOTION_DDOT": 0}, "tle": {"line1": "1 33905U 93036DJ  25340.39445837  .00003953  00000+0  13597-2 0  9994", "line2": "2 33905  73.8870 328.3883 0059272 219.1218 297.0067 14.35349319875967"}}, "geometry": {"type": "Point", "coordinates": [-19.795088064243966, 37.20556440622094]}}, {"type": "Feature", "properties": {"norad_id": 33906, "name": "COSMOS 2251 DEB", "group": "cosmos-2251-debris", "lat": -6.295954676627929, "lon": 154.45611758731783, "alt_km": 732.2553373224127, "timestamp": "2025-12-06T20:37:56.468326+00:00", "meta": {"OBJECT_NAME": "COSMOS 2251 DEB", "OBJECT_ID": "1993-036DK", "EPOCH": "2025-12-06T10:37:30.829152", "MEAN_MOTION": 14.56917351, "ECCENTRICITY": 0.00364035, "INCLINATION": 74.0304, "RA_OF_ASC_NODE": 333.4373, "ARG_OF_PERICENTER": 3.9971, "MEAN_ANOMALY": 156.4139, "EPHEMERIS_TYPE": 0, "CLASSIFICATION_TYPE": "U", "NORAD_CAT_ID": 33906, "ELEMENT_SET_NO": 999, "REV_AT_EPOCH": 87916, "BSTAR": 0.0036833941, "MEAN_MOTION_DOT": 0.00016693, "MEAN_MOTION_DDOT": 0}, "tle": {"line1": "1 33906U 93036DK  25340.44271793  .00016693  00000+0  36834-2 0  9993", "line2": "2 33906  74.0304 333.4373 0036403   3.9971 156.4139 14.56917351879164"}}, "geometry": {"type": "Point", "coordinates": [154.45611758731783, -6.295954676627929]}}, {"type": "Feature", "properties": {"norad_id": 33907, "name": "COSMOS 2251 DEB", "group": "cosmos-2251-debris", "lat": -0.9143785903290491, "lon": 44.07067065744189, "alt_km": 809.5050983558021, "timestamp": "2025-12-06T20:37:56.468343+00:00", "meta": {"OBJECT_NAME": "COSMOS 2251 DEB", "OBJECT_ID": "1993-036DL", "EPOCH": "2025-12-06T14:28:59.064096", "MEAN_MOTION": 14.30424465, "ECCENTRICITY": 0.01126768, "INCLINATION": 74.0706, "RA_OF_ASC_NODE": 44.7969, "ARG_OF_PERICENTER": 102.0967, "MEAN_ANOMALY": 19.4463, "EPHEMERIS_TYPE": 0, "CLASSIFICATION_TYPE": "U", "NORAD_CAT_ID": 33907, "ELEMENT_SET_NO": 999, "REV_AT_EPOCH": 86492, "BSTAR": 0.0028832723, "MEAN_MOTION_DOT": 8.022e-05, "MEAN_MOTION_DDOT": 0}, "tle": {"line1": "1 33907U 93036DL  25340.60346139  .00008022  00000+0  28833-2 0  9996", "line2": "2 33907  74.0706  44.7969 0112676 102.0967  19.4463 14.30424465864924"}}, "geometry": {"type": "Point", "coordinates": [44.07067065744189, -0.9143785903290491]}}, {"type": "Feature", "properties": {"norad_id": 33908, "name": "COSMOS 2251 DEB", "group": "cosmos-2251-debris", "lat": 21.6727921489739, "lon": 29.581771728699927, "alt_km": 846.1449154366519, "timestamp": "2025-12-06T20:37:56.468354+00:00", "meta": {"OBJECT_NAME": "COSMOS 2251 DEB", "OBJECT_ID": "1993-036DM", "EPOCH": "2025-12-06T09:37:41.435328", "MEAN_MOTION": 14.07270417, "ECCENTRICITY": 0.02237099, "INCLINATION": 73.8378, "RA_OF_ASC_NODE": 217.0126, "ARG_OF_PERICENTER": 241.6716, "MEAN_ANOMALY": 116.1695, "EPHEMERIS_TYPE": 0, "CLASSIFICATION_TYPE": "U", "NORAD_CAT_ID": 33908, "ELEMENT_SET_NO": 999, "REV_AT_EPOCH": 85384, "BSTAR": 0.0030396285, "MEAN_MOTION_DOT": 6.384e-05, "MEAN_MOTION_DDOT": 0}, "tle": {"line1": "1 33908U 93036DM  25340.40117402  .00006384  00000+0  30396-2 0  9990", "line2": "2 33908  73.8378 217.0126 0223709 241.6716 116.1695 14.07270417853840"}}, "geometry": {"type": "Point", "coordinates": [29.581771728699927, 21.6727921489739]}}, {"type": "Feature", "properties": {"norad_id": 33911, "name": "COSMOS 2251 DEB", "group": "cosmos-2251-debris", "lat": -53.588911106495125, "lon": 150.54901156220825, "alt_km": 663.1195594710853, "timestamp": "2025-12-06T20:37:56.468365+00:00", "meta": {"OBJECT_NAME": "COSMOS 2251 DEB", "OBJECT_ID": "1993-036DQ", "EPOCH": "2025-12-06T14:38:05.532864", "MEAN_MOTION": 14.74605758, "ECCENTRICITY": 0.00144402, "INCLINATION": 74.0895, "RA_OF_ASC_NODE": 173.7872, "ARG_OF_PERICENTER": 118.2376, "MEAN_ANOMALY": 298.9978, "EPHEMERIS_TYPE": 0, "CLASSIFICATION_TYPE": "U", "NORAD_CAT_ID": 33911, "ELEMENT_SET_NO": 999, "REV_AT_EPOCH": 88554, "BSTAR": 0.0033379474, "MEAN_MOTION_DOT": 0.00022332, "MEAN_MOTION_DDOT": 0}, "tle": {"line1": "1 33911U 93036DQ  25340.60978626  .00022332  00000+0  33379-2 0  9994", "line2": "2 33911  74.0895 173.7872 0014440 118.2376 298.9978 14.74605758885547"}}, "geometry": {"type": "Point", "coordinates": [150.54901156220825, -53.588911106495125]}}, {"type": "Feature", "properties": {"norad_id": 33912, "name": "COSMOS 2251 DEB", "group": "cosmos-2251-debris", "lat": -44.38753748438245, "lon": -175.47393933398055, "alt_km": 719.1553660677046, "timestamp": "2025-12-06T20:37:56.468376+00:00", "meta": {"OBJECT_NAME": "COSMOS 2251 DEB", "OBJECT_ID": "1993-036DR", "EPOCH": "2025-12-06T16:08:37.390272", "MEAN_MOTION": 14.51845894, "ECCENTRICITY": 0.00115516, "INCLINATION": 74.0334, "RA_OF_ASC_NODE": 201.1531, "ARG_OF_PERICENTER": 279.9523, "MEAN_ANOMALY": 136.2507, "EPHEMERIS_TYPE": 0, "CLASSIFICATION_TYPE": "U", "NORAD_CAT_ID": 33912, "ELEMENT_SET_NO": 999, "REV_AT_EPOCH": 88345, "BSTAR": 0.0012611386, "MEAN_MOTION_DOT": 5.058e-05, "MEAN_MOTION_DDOT": 0}, "tle": {"line1": "1 33912U 93036DR  25340.67265498  .00005058  00000+0  12611-2 0  9990", "line2": "2 33912  74.0334 201.1531 0011551 279.9523 136.2507 14.51845894883455"}}, "geometry": {"type": "Point", "coordinates": [-175.47393933398055, -44.38753748438245]}}, {"type": "Feature", "properties": {"norad_id": 33913, "name": "COSMOS 2251 DEB", "group": "cosmos-2251-debris", "lat": 63.79758328880379, "lon": -20.914749588784478, "alt_km": 758.0995473627081, "timestamp": "2025-12-06T20:37:56.468391+00:00", "meta": {"OBJECT_NAME": "COSMOS 2251 DEB", "OBJECT_ID": "1993-036DS", "EPOCH": "2025-12-06T15:24:17.326944", "MEAN_MOTION": 14.48451237, "ECCENTRICITY": 0.00481712, "INCLINATION": 74.0334, "RA_OF_ASC_NODE": 195.069, "ARG_OF_PERICENTER": 298.7658, "MEAN_ANOMALY": 116.8588, "EPHEMERIS_TYPE": 0, "CLASSIFICATION_TYPE": "U", "NORAD_CAT_ID": 33913, "ELEMENT_SET_NO": 999, "REV_AT_EPOCH": 88369, "BSTAR": 0.00099985369, "MEAN_MOTION_DOT": 3.777e-05, "MEAN_MOTION_DDOT": 0}, "tle": {"line1": "1 33913U 93036DS  25340.64186721  .00003777  00000+0  99985-3 0  9995", "line2": "2 33913  74.0334 195.0690 0048171 298.7658 116.8588 14.48451237883698"}}, "geometry": {"type": "Point", "coordinates": [-20.914749588784478, 63.79758328880379]}}, {"type": "Feature", "properties": {"norad_id": 33914, "name": "COSMOS 2251 DEB", "group": "cosmos-2251-debris", "lat": -70.02057267539375, "lon": -103.5465207626519, "alt_km": 1133.659208131994, "timestamp": "2025-12-06T20:37:56.468403+00:00", "meta": {"OBJECT_NAME": "COSMOS 2251 DEB", "OBJECT_ID": "1993-036DT", "EPOCH": "2025-12-06T14:41:50.552160", "MEAN_MOTION": 13.71976854, "ECCENTRICITY": 0.03017069, "INCLINATION": 74.0915, "RA_OF_ASC_NODE": 25.1925, "ARG_OF_PERICENTER": 129.7121, "MEAN_ANOMALY": 344.3504, "EPHEMERIS_TYPE": 0, "CLASSIFICATION_TYPE": "U", "NORAD_CAT_ID": 33914, "ELEMENT_SET_NO": 999, "REV_AT_EPOCH": 83997, "BSTAR": 0.00089932663, "MEAN_MOTION_DOT": 1.109e-05, "MEAN_MOTION_DDOT": 0}, "tle": {"line1": "1 33914U 93036DT  25340.61239065  .00001109  00000+0  89933-3 0  9992", "line2": "2 33914  74.0915  25.1925 0301706 129.7121 344.3504 13.71976854839972"}}, "geometry": {"type": "Point", "coordinates": [-103.5465207626519, -70.02057267539375]}}, {"type": "Feature", "properties": {"norad_id": 33915, "name": "COSMOS 2251 DEB", "group": "cosmos-2251-debris", "lat": 54.79795937064229, "lon": -159.0406038089538, "alt_km": 697.6585764696474, "timestamp": "2025-12-06T20:37:56.468414+00:00", "meta": {"OBJECT_NAME": "COSMOS 2251 DEB", "OBJECT_ID": "1993-036DU", "EPOCH": "2025-12-06T15:36:27.457056", "MEAN_MOTION": 14.35061142, "ECCENTRICITY": 0.01047608, "INCLINATION": 74.0446, "RA_OF_ASC_NODE": 45.2669, "ARG_OF_PERICENTER": 139.4209, "MEAN_ANOMALY": 341.4914, "EPHEMERIS_TYPE": 0, "CLASSIFICATION_TYPE": "U", "NORAD_CAT_ID": 33915, "ELEMENT_SET_NO": 999, "REV_AT_EPOCH": 87670, "BSTAR": 0.00084718101, "MEAN_MOTION_DOT": 2.545e-05, "MEAN_MOTION_DDOT": 0}, "tle": {"line1": "1 33915U 93036DU  25340.65031779  .00002545  00000+0  84718-3 0  9990", "line2": "2 33915  74.0446  45.2669 0104760 139.4209 341.4914 14.35061142876707"}}, "geometry": {"type": "Point", "coordinates": [-159.0406038089538, 54.79795937064229]}}, {"type": "Feature", "properties": {"norad_id": 33916, "name": "COSMOS 2251 DEB", "group": "cosmos-2251-debris", "lat": -49.953561103783684, "lon": -109.86184114599115, "alt_km": 773.5936963924696, "timestamp": "2025-12-06T20:37:56.468425+00:00", "meta": {"OBJECT_NAME": "COSMOS 2251 DEB", "OBJECT_ID": "1993-036DV", "EPOCH": "2025-12-06T10:48:01.003968", "MEAN_MOTION": 13.68602684, "ECCENTRICITY": 0.03254718, "INCLINATION": 74.0531, "RA_OF_ASC_NODE": 50.923, "ARG_OF_PERICENTER": 224.4017, "MEAN_ANOMALY": 150.0529, "EPHEMERIS_TYPE": 0, "CLASSIFICATION_TYPE": "U", "NORAD_CAT_ID": 33916, "ELEMENT_SET_NO": 999, "REV_AT_EPOCH": 83805, "BSTAR": 0.00096082732, "MEAN_MOTION_DOT": 1.17e-05, "MEAN_MOTION_DDOT": 0}, "tle": {"line1": "1 33916U 93036DV  25340.45001162  .00001170  00000+0  96083-3 0  9993", "line2": "2 33916  74.0531  50.9230 0325471 224.4017 150.0529 13.68602684838055"}}, "geometry": {"type": "Point", "coordinates": [-109.86184114599115, -49.953561103783684]}}]}